
2018-102D
1 43834U 18102D   26175.30139284  .00071537  00000+0  63712-3 0  9999
2 43834  97.3438 264.7770 0001804  51.8738 308.2686 15.68252928418369

AISTECHSAT 2
1 43768U 18099L   26174.36162995  .00004167  00000+0  22349-3 0  9996
2 43768  97.4291 222.2603 0002989 277.2376  82.8517 15.15498989413212

ASTROCAST 0.1
1 43798U 18099AS  26175.17027981  .00033057  00000+0  59058-3 0  9991
2 43798  97.4374 253.8870 0005536 182.6907 177.4315 15.49955035415512

CENTAURI-1
1 43809U 18099BD  26175.13478671  .00004360  00000+0  22730-3 0  9998
2 43809  97.4220 226.7052 0012564 307.4729  52.5361 15.16423216413555

COSMOS 2531 (RODNIK-S *)
1 43752U 18097B   26175.32160799 -.00000035  00000+0 -32321-3 0  9997
2 43752  82.5180 218.9140 0017486  43.5515 316.6942 12.42912365343197

COSMOS 2532 (RODNIK-S *)
1 43753U 18097C   26175.26940302 -.00000092  00000+0 -73701-3 0  9997
2 43753  82.5124 217.7291 0018900  45.4779 314.7841 12.42909447343155

D-STAR ONE (SPARROW)
1 43881U 18111F   26174.35634660  .00149766  00000+0  94570-3 0  9999
2 43881  97.6095 115.7899 0004618 124.5126 235.6575 15.76173004412343

EAGLET-I
1 43790U 18099AJ  26175.12953031  .00003286  00000+0  18965-3 0  9995
2 43790  97.4230 224.6143 0010000 328.8929  31.1709 15.12983619413389

EGYPTSAT-A (MISRSAT-A)
1 44047U 19008A   26175.27918797  .00000380  00000+0  67907-4 0  9991
2 44047  98.0191 239.9453 0001440 100.8340 259.3030 14.72313999394285

ESEO
1 43792U 18099AL  26175.09838027  .00001205  00000+0  90708-4 0  9995
2 43792  97.3976 212.1910 0010493 316.2627  43.7767 15.04268456412842

FOX-1CLIFF (AO-95)
1 43770U 18099N   26175.15597508  .00009674  00000+0  36928-3 0  9995
2 43770  97.4382 235.3767 0007299 330.8169  29.2661 15.26836482414286

GLOBAL-2
1 43812U 18099BG  26175.10526649  .00002931  00000+0  19065-3 0  9997
2 43812  97.3559 211.3310 0007386 123.4221 236.7716 15.08707685412958

ISAT
1 43879U 18111D   26174.55295329  .00082802  00000+0  79540-3 0  9990
2 43879  97.5872 110.2675 0002605 165.3365 194.7971 15.66333302412169

ITASAT
1 43786U 18099AE  26174.87224046  .00005463  00000+0  26291-3 0  9998
2 43786  97.4030 226.2505 0011386 335.8240  24.2459 15.19126206413927

JILIN-1 09
1 43943U 19005B   26175.28729871  .00004103  00000+0  19053-3 0  9991
2 43943  97.4739 270.1893 0003682  80.4602 279.7049 15.20566442410225

JILIN-1 10
1 43946U 19005E   26175.27518165  .00005052  00000+0  20054-3 0  9992
2 43946  97.4785 274.0795 0006729 248.4411 111.6110 15.25786391410395

JY1SAT (JO-97)
1 43803U 18099AX  26175.14190018  .00015119  00000+0  46379-3 0  9998
2 43803  97.4133 238.0008 0004834 230.5921 129.4894 15.33842498414697

MINXSS-2
1 43758U 18099A   26175.20651980  .00033748  00000+0  66053-3 0  9993
2 43758  97.4534 251.6982 0007235 228.2475 131.8157 15.47316970415213

RANGE-A
1 43773U 18099R   26175.05426862  .00004087  00000+0  23210-3 0  9994
2 43773  97.3966 217.4324 0009149 331.7900  28.2835 15.13437866413533

SAUDISAT 5A
1 43831U 18102A   26175.30257485  .00004922  00000+0  18197-3 0  9991
2 43831  97.3067 236.7464 0011292 107.4765 252.7710 15.28110928416765

SAUDISAT 5B
1 43833U 18102C   26175.32023148  .00004837  00000+0  17746-3 0  9996
2 43833  97.3175 239.8463 0012005 109.2997 250.9542 15.28364693416886

SEAHAWK-1
1 43820U 18099BQ  26175.10136453  .00007602  00000+0  32699-3 0  9994
2 43820  97.3962 227.4817 0006505 285.4087  74.6430 15.22901612413580

SIRION PATHFINDER-2
1 43759U 18099B   26175.11880585  .00003790  00000+0  20872-3 0  9992
2 43759  97.4251 224.0115 0007010 275.4609  84.5823 15.14601390413675

SNUGLITE
1 43784U 18099AC  26175.08876981  .00010485  00000+0  39458-3 0  9990
2 43784  97.3868 229.3010 0001457 236.9546 123.1553 15.27306223414378

SNUSAT-2
1 43782U 18099AA  26175.10558180  .00006958  00000+0  30815-3 0  9997
2 43782  97.4059 228.3830 0008557 269.4568  90.5688 15.21924318414080

SUOMI-100
1 43804U 18099AY  26175.14570907  .00010718  00000+0  38798-3 0  9994
2 43804  97.4189 235.5135 0008566 249.8041 110.2278 15.28552873414484

THEA
1 43796U 18099AQ  26175.17680713  .00015752  00000+0  46246-3 0  9994
2 43796  97.4442 244.9374 0006146 251.8278 108.2297 15.35215941413760

UWE-4
1 43880U 18111E   26175.07461358  .00030603  00000+0  61683-3 0  9998
2 43880  97.5841 103.7842 0004486 307.8238  52.2604 15.46500339411840
