OBJECT_NAME,OBJECT_ID,EPOCH,MEAN_MOTION,ECCENTRICITY,INCLINATION,RA_OF_ASC_NODE,ARG_OF_PERICENTER,MEAN_ANOMALY,EPHEMERIS_TYPE,CLASSIFICATION_TYPE,NORAD_CAT_ID,ELEMENT_SET_NO,REV_AT_EPOCH,BSTAR,MEAN_MOTION_DOT,MEAN_MOTION_DDOT
COSMOS 2531 (RODNIK-S 17),2018-097B,2026-06-24T07:43:06.930336,12.42912365,.00174862,82.5180,218.9140,43.5515,316.6942,0,U,43752,999,34319,-.3232085E-3,-.35E-6,0
COSMOS 2532 (RODNIK-S 18),2018-097C,2026-06-24T06:27:56.420928,12.42909447,.00189003,82.5124,217.7291,45.4779,314.7841,0,U,43753,999,34315,-.73700678E-3,-.92E-6,0
MINXSS-2,2018-099A,2026-06-24T04:57:23.310720,15.47316970,.00072357,97.4534,251.6982,228.2475,131.8157,0,U,43758,999,41521,.66052634E-3,.33748E-3,0
SIRION PATHFINDER-2,2018-099B,2026-06-24T02:51:04.825440,15.14601390,.00070105,97.4251,224.0115,275.4609,84.5823,0,U,43759,999,41367,.20871553E-3,.379E-4,0
AISTECHSAT 2,2018-099L,2026-06-23T08:40:44.827680,15.15498989,.00029896,97.4291,222.2603,277.2376,82.8517,0,U,43768,999,41321,.22348573E-3,.4167E-4,0
FOX-1CLIFF (AO-95),2018-099N,2026-06-24T03:44:36.246912,15.26836482,.00072993,97.4382,235.3767,330.8169,29.2661,0,U,43770,999,41428,.36927831E-3,.9674E-4,0
RANGE-A,2018-099R,2026-06-24T01:18:08.808768,15.13437866,.0009149,97.3966,217.4324,331.7900,28.2835,0,U,43773,999,41353,.23209775E-3,.4087E-4,0
SNUSAT-2,2018-099AA,2026-06-24T02:32:02.267520,15.21924318,.00085576,97.4059,228.3830,269.4568,90.5688,0,U,43782,999,41408,.30814907E-3,.6958E-4,0
SNUGLITE,2018-099AC,2026-06-24T02:07:49.711584,15.27306223,.00014576,97.3868,229.3010,236.9546,123.1553,0,U,43784,999,41437,.39458288E-3,.10485E-3,0
ITASAT,2018-099AE,2026-06-23T20:56:01.575744,15.19126206,.00113865,97.4030,226.2505,335.8240,24.2459,0,U,43786,999,41392,.26291301E-3,.5463E-4,0
EAGLET-I,2018-099AJ,2026-06-24T03:06:31.418784,15.12983619,.00100005,97.4230,224.6143,328.8929,31.1709,0,U,43790,999,41338,.18965291E-3,.3286E-4,0
ESEO,2018-099AL,2026-06-24T02:21:40.055328,15.04268456,.00104931,97.3976,212.1910,316.2627,43.7767,0,U,43792,999,41284,.90707596E-4,.1205E-4,0
THEA,2018-099AQ,2026-06-24T04:14:36.136032,15.35215941,.00061467,97.4442,244.9374,251.8278,108.2297,0,U,43796,999,41376,.46246169E-3,.15752E-3,0
ASTROCAST 0.1,2018-099AS,2026-06-24T04:05:12.175584,15.49955035,.00055368,97.4374,253.8870,182.6907,177.4315,0,U,43798,999,41551,.59057647E-3,.33057E-3,0
JY1SAT (JO-97),2018-099AX,2026-06-24T03:24:20.175552,15.33842498,.0004834,97.4133,238.0008,230.5921,129.4894,0,U,43803,999,41469,.46378981E-3,.15119E-3,0
SUOMI-100,2018-099AY,2026-06-24T03:29:49.263648,15.28552873,.00085665,97.4189,235.5135,249.8041,110.2278,0,U,43804,999,41448,.38798102E-3,.10718E-3,0
CENTAURI-1,2018-099BD,2026-06-24T03:14:05.571744,15.16423216,.00125648,97.4220,226.7052,307.4729,52.5361,0,U,43809,999,41355,.22730135E-3,.436E-4,0
GLOBAL-2,2018-099BG,2026-06-24T02:31:35.024736,15.08707685,.00073863,97.3559,211.3310,123.4221,236.7716,0,U,43812,999,41295,.19065254E-3,.2931E-4,0
SEAHAWK-1,2018-099BQ,2026-06-24T02:25:57.895392,15.22901612,.00065053,97.3962,227.4817,285.4087,74.6430,0,U,43820,999,41358,.32698831E-3,.7602E-4,0
SAUDISAT 5A,2018-102A,2026-06-24T07:15:42.467040,15.28110928,.0011292,97.3067,236.7464,107.4765,252.7710,0,U,43831,999,41676,.18196984E-3,.4922E-4,0
SAUDISAT 5B,2018-102C,2026-06-24T07:41:07.999872,15.28364693,.00120055,97.3175,239.8463,109.2997,250.9542,0,U,43833,999,41688,.17746275E-3,.4837E-4,0
2018-102D,2018-102D,2026-06-24T07:14:00.341376,15.68252928,.00018045,97.3438,264.7770,51.8738,308.2686,0,U,43834,999,41836,.63712339E-3,.71537E-3,0
ISAT,2018-111D,2026-06-23T13:16:15.164256,15.66333302,.00026052,97.5872,110.2675,165.3365,194.7971,0,U,43879,999,41216,.79540238E-3,.82802E-3,0
UWE-4,2018-111E,2026-06-24T01:47:26.613312,15.46500339,.00044861,97.5841,103.7842,307.8238,52.2604,0,U,43880,999,41184,.61682984E-3,.30603E-3,0
D-STAR ONE (SPARROW),2018-111F,2026-06-23T08:33:08.346240,15.76173004,.00046185,97.6095,115.7899,124.5126,235.6575,0,U,43881,999,41234,.94569905E-3,.149766E-2,0
JILIN-1 09,2019-005B,2026-06-24T06:53:42.608544,15.20566442,.00036822,97.4739,270.1893,80.4602,279.7049,0,U,43943,999,41022,.19053341E-3,.4103E-4,0
JILIN-1 10,2019-005E,2026-06-24T06:36:15.694560,15.25786391,.00067293,97.4785,274.0795,248.4411,111.6110,0,U,43946,999,41039,.20054269E-3,.5052E-4,0
EGYPTSAT-A (MISRSAT-A),2019-008A,2026-06-24T06:42:01.840608,14.72313999,.00014403,98.0191,239.9453,100.8340,259.3030,0,U,44047,999,39428,.67906939E-4,.38E-5,0
